{
    "links": {
        "self": "http://www.neowsapp.com/rest/v1/neo/3755312?api_key=iIulBulltgU6a56xZRHN4H3l9WmuAYTsLGpBGhQ2"
    },
    "id": "3755312",
    "neo_reference_id": "3755312",
    "name": "(2016 NU32)",
    "designation": "2016 NU32",
    "nasa_jpl_url": "http://ssd.jpl.nasa.gov/sbdb.cgi?sstr=3755312",
    "absolute_magnitude_h": 23.4,
    "estimated_diameter": {
        "kilometers": {
            "estimated_diameter_min": 0.0555334912,
            "estimated_diameter_max": 0.1241766613
        },
        "meters": {
            "estimated_diameter_min": 55.5334911581,
            "estimated_diameter_max": 124.1766612574
        },
        "miles": {
            "estimated_diameter_min": 0.0345069009,
            "estimated_diameter_max": 0.0771597762
        },
        "feet": {
            "estimated_diameter_min": 182.1964991311,
            "estimated_diameter_max": 407.4037573197
        }
    },
    "is_potentially_hazardous_asteroid": false,
    "close_approach_data": [
        {
            "close_approach_date": "2016-07-11",
            "close_approach_date_full": "2016-Jul-11 07:48",
            "epoch_date_close_approach": 1468223280000,
            "relative_velocity": {
                "kilometers_per_second": "12.2778124797",
                "kilometers_per_hour": "44200.1249267472",
                "miles_per_hour": "27464.2387357336"
            },
            "miss_distance": {
                "astronomical": "0.0912156902",
                "lunar": "35.4829034878",
                "kilometers": "13645672.964499874",
                "miles": "8479028.0023873012"
            },
            "orbiting_body": "Earth"
        }
    ],
    "orbital_data": {
        "orbit_id": "4",
        "orbit_determination_date": "2018-02-10 07:08:01",
        "first_observation_date": "2016-07-10",
        "last_observation_date": "2016-08-01",
        "data_arc_in_days": 22,
        "observations_used": 22,
        "orbit_uncertainty": "8",
        "minimum_orbit_intersection": ".0510571",
        "jupiter_tisserand_invariant": "4.959",
        "epoch_osculation": "2457581.5",
        "eccentricity": ".1718521587490137",
        "semi_major_axis": "1.281624900496789",
        "inclination": "23.17517431977172",
        "ascending_node_longitude": "112.4303630539653",
        "orbital_period": "529.956022450704",
        "perihelion_distance": "1.061374894639926",
        "perihelion_argument": "163.4593685125281",
        "aphelion_distance": "1.501874906353652",
        "perihelion_time": "2457562.802263689987",
        "mean_anomaly": "12.70140310978504",
        "mean_motion": ".6793016490976604",
        "equinox": "J2000",
        "orbit_class": {
            "orbit_class_type": "AMO",
            "orbit_class_description": "Near-Earth asteroid orbits similar to that of 1221 Amor",
            "orbit_class_range": "1.017 AU < q (perihelion) < 1.3 AU"
        }
    },
    "is_sentry_object": false
}